start=new Date('2022-11-17T00:00:00.000Z').valueOf();
sats=[{"ECCENTRICITY":"0.00017120","TLE_LINE2":"2 46584  53.0535 183.3937 0001712  64.0335 296.0830 15.06403761117589","INCLINATION":"53.0535","LAUNCH_DATE":"2020-10-06","GP_ID":"218012891","MEAN_ANOMALY":"296.0830","OBJECT_NAME":"STARLINK-1732","BSTAR":"0.00015785000000","FILE":"3660705","DECAY_DATE":null,"PERIOD":"95.592","OBJECT_TYPE":"PAYLOAD","TIME_SYSTEM":"UTC","CLASSIFICATION_TYPE":"U","APOAPSIS":"548.388","REV_AT_EPOCH":"11758","SEMIMAJOR_AXIS":"6925.337","ELEMENT_SET_NO":"999","ARG_OF_PERICENTER":"64.0335","EPHEMERIS_TYPE":"0","SITE":"AFETR","CENTER_NAME":"EARTH","MEAN_MOTION_DOT":"0.00002071","RA_OF_ASC_NODE":"183.3937","EPOCH":"2022-11-16T20:00:48.492576","REF_FRAME":"TEME","MEAN_MOTION_DDOT":"0.0000000000000","TLE_LINE1":"1 46584U 20070BE  22320.83389459  .00002071  00000-0  15785-3 0  9993","MEAN_MOTION":"15.06403761","PERIAPSIS":"546.016","OBJECT_ID":"2020-070BE","COUNTRY_CODE":"US","NORAD_CAT_ID":"46584","RCS_SIZE":"LARGE","MEAN_ELEMENT_THEORY":"SGP4"},{"RCS_SIZE":"LARGE","MEAN_ELEMENT_THEORY":"SGP4","COUNTRY_CODE":"US","NORAD_CAT_ID":"46585","OBJECT_ID":"2020-070BF","PERIAPSIS":"546.105","REF_FRAME":"TEME","MEAN_MOTION_DDOT":"0.0000000000000","TLE_LINE1":"1 46585U 20070BF  22320.78503055  .00000953  00000-0  82896-4 0  9993","MEAN_MOTION":"15.06397102","EPOCH":"2022-11-16T18:50:26.639520","SITE":"AFETR","CENTER_NAME":"EARTH","MEAN_MOTION_DOT":"0.00000953","RA_OF_ASC_NODE":"183.6053","SEMIMAJOR_AXIS":"6925.357","ARG_OF_PERICENTER":"62.3771","ELEMENT_SET_NO":"999","EPHEMERIS_TYPE":"0","APOAPSIS":"548.340","REV_AT_EPOCH":"11757","TIME_SYSTEM":"UTC","CLASSIFICATION_TYPE":"U","PERIOD":"95.592","OBJECT_TYPE":"PAYLOAD","DECAY_DATE":null,"BSTAR":"0.00008289600000","FILE":"3660705","MEAN_ANOMALY":"297.7382","OBJECT_NAME":"STARLINK-1736","INCLINATION":"53.0553","TLE_LINE2":"2 46585  53.0553 183.6053 0001614  62.3771 297.7382 15.06397102117578","LAUNCH_DATE":"2020-10-06","GP_ID":"218013137","ECCENTRICITY":"0.00016140"},{"OBJECT_NAME":"STARLINK-1737","MEAN_ANOMALY":"277.5375","BSTAR":"0.00008765400000","FILE":"3660705","ECCENTRICITY":"0.00014340","INCLINATION":"53.0534","TLE_LINE2":"2 46586  53.0534 183.6427 0001434  82.5777 277.5375 15.06399457117576","LAUNCH_DATE":"2020-10-06","GP_ID":"218012392","CLASSIFICATION_TYPE":"U","TIME_SYSTEM":"UTC","DECAY_DATE":null,"OBJECT_TYPE":"PAYLOAD","PERIOD":"95.592","MEAN_MOTION_DOT":"0.00001024","SITE":"AFETR","CENTER_NAME":"EARTH","RA_OF_ASC_NODE":"183.6427","EPOCH":"2022-11-16T18:35:52.921248","REV_AT_EPOCH":"11757","APOAPSIS":"548.208","SEMIMAJOR_AXIS":"6925.350","EPHEMERIS_TYPE":"0","ELEMENT_SET_NO":"999","ARG_OF_PERICENTER":"82.5777","COUNTRY_CODE":"US","NORAD_CAT_ID":"46586","OBJECT_ID":"2020-070BG","RCS_SIZE":"LARGE","MEAN_ELEMENT_THEORY":"SGP4","TLE_LINE1":"1 46586U 20070BG  22320.77491807  .00001024  00000-0  87654-4 0  9991","MEAN_MOTION_DDOT":"0.0000000000000","REF_FRAME":"TEME","MEAN_MOTION":"15.06399457","PERIAPSIS":"546.222"},{"GP_ID":"218012639","LAUNCH_DATE":"2020-10-06","TLE_LINE2":"2 46588  53.0531 183.1494 0001744  49.5365 310.5776 15.06401350117595","INCLINATION":"53.0531","ECCENTRICITY":"0.00017440","FILE":"3660705","BSTAR":"0.00011842000000","OBJECT_NAME":"STARLINK-1746","MEAN_ANOMALY":"310.5776","OBJECT_TYPE":"PAYLOAD","PERIOD":"95.592","DECAY_DATE":null,"CLASSIFICATION_TYPE":"U","TIME_SYSTEM":"UTC","EPHEMERIS_TYPE":"0","ARG_OF_PERICENTER":"49.5365","ELEMENT_SET_NO":"999","SEMIMAJOR_AXIS":"6925.344","REV_AT_EPOCH":"11759","APOAPSIS":"548.417","EPOCH":"2022-11-16T21:20:24.944640","RA_OF_ASC_NODE":"183.1494","MEAN_MOTION_DOT":"0.00001483","CENTER_NAME":"EARTH","SITE":"AFETR","PERIAPSIS":"546.002","MEAN_MOTION":"15.06401350","TLE_LINE1":"1 46588U 20070BJ  22320.88917760  .00001483  00000-0  11842-3 0  9990","MEAN_MOTION_DDOT":"0.0000000000000","REF_FRAME":"TEME","MEAN_ELEMENT_THEORY":"SGP4","RCS_SIZE":"LARGE","COUNTRY_CODE":"US","OBJECT_ID":"2020-070BJ","NORAD_CAT_ID":"46588"},{"EPOCH":"2022-11-16T08:25:29.182080","CENTER_NAME":"EARTH","SITE":"AFETR","MEAN_MOTION_DOT":"0.00003768","RA_OF_ASC_NODE":"185.5579","SEMIMAJOR_AXIS":"6925.336","ELEMENT_SET_NO":"999","ARG_OF_PERICENTER":"69.4444","EPHEMERIS_TYPE":"0","APOAPSIS":"548.150","REV_AT_EPOCH":"11750","RCS_SIZE":"LARGE","MEAN_ELEMENT_THEORY":"SGP4","OBJECT_ID":"2020-070BK","COUNTRY_CODE":"US","NORAD_CAT_ID":"46589","PERIAPSIS":"546.253","REF_FRAME":"TEME","MEAN_MOTION_DDOT":"0.0000000000000","TLE_LINE1":"1 46589U 20070BK  22320.35103220  .00003768  00000-0  27168-3 0  9997","MEAN_MOTION":"15.06403964","BSTAR":"0.00027168000000","FILE":"3659788","MEAN_ANOMALY":"290.6692","OBJECT_NAME":"STARLINK-1749","TLE_LINE2":"2 46589  53.0526 185.5579 0001370  69.4444 290.6692 15.06403964117503","INCLINATION":"53.0526","LAUNCH_DATE":"2020-10-06","GP_ID":"217968151","ECCENTRICITY":"0.00013700","TIME_SYSTEM":"UTC","CLASSIFICATION_TYPE":"U","PERIOD":"95.592","OBJECT_TYPE":"PAYLOAD","DECAY_DATE":null},{"GP_ID":"218013638","INCLINATION":"53.0545","TLE_LINE2":"2 46591  53.0545 183.5224 0001602  69.3593 290.7568 15.06395804116633","LAUNCH_DATE":"2020-10-06","ECCENTRICITY":"0.00016020","FILE":"3660705","BSTAR":"-0.00003226300000","OBJECT_NAME":"STARLINK-1755","MEAN_ANOMALY":"290.7568","OBJECT_TYPE":"PAYLOAD","PERIOD":"95.592","DECAY_DATE":null,"CLASSIFICATION_TYPE":"U","TIME_SYSTEM":"UTC","EPHEMERIS_TYPE":"0","ELEMENT_SET_NO":"999","ARG_OF_PERICENTER":"69.3593","SEMIMAJOR_AXIS":"6925.361","REV_AT_EPOCH":"11663","APOAPSIS":"548.336","EPOCH":"2022-11-16T19:18:20.845152","RA_OF_ASC_NODE":"183.5224","MEAN_MOTION_DOT":"-0.00000762","CENTER_NAME":"EARTH","SITE":"AFETR","PERIAPSIS":"546.117","MEAN_MOTION":"15.06395804","MEAN_MOTION_DDOT":"0.0000000000000","TLE_LINE1":"1 46591U 20070BM  22320.80440793 -.00000762  00000-0 -32263-4 0  9995","REF_FRAME":"TEME","MEAN_ELEMENT_THEORY":"SGP4","RCS_SIZE":"LARGE","COUNTRY_CODE":"US","NORAD_CAT_ID":"46591","OBJECT_ID":"2020-070BM"},{"ARG_OF_PERICENTER":"42.0911","ELEMENT_SET_NO":"999","EPHEMERIS_TYPE":"0","SEMIMAJOR_AXIS":"6925.388","APOAPSIS":"548.793","REV_AT_EPOCH":"11529","EPOCH":"2022-11-16T13:37:21.966240","RA_OF_ASC_NODE":"274.8307","SITE":"AFETR","CENTER_NAME":"EARTH","MEAN_MOTION_DOT":"-0.00002156","PERIAPSIS":"545.714","MEAN_MOTION":"15.06387104","REF_FRAME":"TEME","MEAN_MOTION_DDOT":"0.0000000000000","TLE_LINE1":"1 46671U 20073B   22320.56761535 -.00002156  00000-0 -12592-3 0  9991","MEAN_ELEMENT_THEORY":"SGP4","RCS_SIZE":"LARGE","COUNTRY_CODE":"US","OBJECT_ID":"2020-073B","NORAD_CAT_ID":"46671","GP_ID":"217982532","TLE_LINE2":"2 46671  53.0543 274.8307 0002223  42.0911 318.0249 15.06387104115293","INCLINATION":"53.0543","LAUNCH_DATE":"2020-10-18","ECCENTRICITY":"0.00022230","FILE":"3660231","BSTAR":"-0.00012592000000","MEAN_ANOMALY":"318.0249","OBJECT_NAME":"STARLINK-1715","PERIOD":"95.593","OBJECT_TYPE":"PAYLOAD","DECAY_DATE":null,"TIME_SYSTEM":"UTC","CLASSIFICATION_TYPE":"U"},{"SEMIMAJOR_AXIS":"6925.365","ARG_OF_PERICENTER":"50.1253","ELEMENT_SET_NO":"999","EPHEMERIS_TYPE":"0","APOAPSIS":"548.664","REV_AT_EPOCH":"11489","EPOCH":"2022-11-16T14:01:52.203072","SITE":"AFETR","CENTER_NAME":"EARTH","MEAN_MOTION_DOT":"0.00000127","RA_OF_ASC_NODE":"269.5157","PERIAPSIS":"545.797","REF_FRAME":"TEME","TLE_LINE1":"1 46672U 20073C   22320.58463198  .00000127  00000-0  27473-4 0  9997","MEAN_MOTION_DDOT":"0.0000000000000","MEAN_MOTION":"15.06394608","RCS_SIZE":"LARGE","MEAN_ELEMENT_THEORY":"SGP4","OBJECT_ID":"2020-073C","COUNTRY_CODE":"US","NORAD_CAT_ID":"46672","TLE_LINE2":"2 46672  53.0546 269.5157 0002070  50.1253 309.9918 15.06394608114894","LAUNCH_DATE":"2020-10-18","INCLINATION":"53.0546","GP_ID":"217969660","ECCENTRICITY":"0.00020700","BSTAR":"0.00002747300000","FILE":"3659788","MEAN_ANOMALY":"309.9918","OBJECT_NAME":"STARLINK-1716","PERIOD":"95.592","OBJECT_TYPE":"PAYLOAD","DECAY_DATE":null,"TIME_SYSTEM":"UTC","CLASSIFICATION_TYPE":"U"},{"MEAN_ANOMALY":"310.8330","OBJECT_NAME":"STARLINK-1717","BSTAR":"0.00003314300000","FILE":"3660705","ECCENTRICITY":"0.00017520","TLE_LINE2":"2 46673  53.0547 284.4002 0001752  49.2811 310.8330 15.06396869114683","LAUNCH_DATE":"2020-10-18","INCLINATION":"53.0547","GP_ID":"218012647","TIME_SYSTEM":"UTC","CLASSIFICATION_TYPE":"U","DECAY_DATE":null,"PERIOD":"95.592","OBJECT_TYPE":"PAYLOAD","CENTER_NAME":"EARTH","SITE":"AFETR","MEAN_MOTION_DOT":"0.00000212","RA_OF_ASC_NODE":"284.4002","EPOCH":"2022-11-16T15:11:33.336672","APOAPSIS":"548.436","REV_AT_EPOCH":"11468","SEMIMAJOR_AXIS":"6925.358","ELEMENT_SET_NO":"999","ARG_OF_PERICENTER":"49.2811","EPHEMERIS_TYPE":"0","COUNTRY_CODE":"US","NORAD_CAT_ID":"46673","OBJECT_ID":"2020-073D","RCS_SIZE":"LARGE","MEAN_ELEMENT_THEORY":"SGP4","REF_FRAME":"TEME","MEAN_MOTION_DDOT":"0.0000000000000","TLE_LINE1":"1 46673U 20073D   22320.63302473  .00000212  00000-0  33143-4 0  9998","MEAN_MOTION":"15.06396869","PERIAPSIS":"546.010"},{"SEMIMAJOR_AXIS":"6925.319","EPHEMERIS_TYPE":"0","ARG_OF_PERICENTER":"53.9017","ELEMENT_SET_NO":"999","REV_AT_EPOCH":"11490","APOAPSIS":"548.325","EPOCH":"2022-11-16T16:14:33.275328","MEAN_MOTION_DOT":"0.00003741","SITE":"AFETR","CENTER_NAME":"EARTH","RA_OF_ASC_NODE":"269.0853","PERIAPSIS":"546.043","MEAN_MOTION_DDOT":"0.0000000000000","TLE_LINE1":"1 46674U 20073E   22320.67677402  .00003741  00000-0  26987-3 0  9997","REF_FRAME":"TEME","MEAN_MOTION":"15.06409629","RCS_SIZE":"LARGE","MEAN_ELEMENT_THEORY":"SGP4","COUNTRY_CODE":"US","NORAD_CAT_ID":"46674","OBJECT_ID":"2020-073E","TLE_LINE2":"2 46674  53.0540 269.0853 0001648  53.9017 306.2125 15.06409629114909","INCLINATION":"53.0540","LAUNCH_DATE":"2020-10-18","GP_ID":"218013400","ECCENTRICITY":"0.00016480","BSTAR":"0.00026987000000","FILE":"3660705","OBJECT_NAME":"STARLINK-1718","MEAN_ANOMALY":"306.2125","OBJECT_TYPE":"PAYLOAD","PERIOD":"95.592","DECAY_DATE":null,"CLASSIFICATION_TYPE":"U","TIME_SYSTEM":"UTC"}];
